[{"OBJECT_NAME":"STARLINK-34941","OBJECT_ID":"2025-176N","EPOCH":"2026-03-09T11:55:46.994880","MEAN_MOTION":15.30183973,"ECCENTRICITY":0.00014456,"INCLINATION":53.1597,"RA_OF_ASC_NODE":153.4334,"ARG_OF_PERICENTER":60.8889,"MEAN_ANOMALY":299.2256,"EPHEMERIS_TYPE":0,"CLASSIFICATION_TYPE":"U","NORAD_CAT_ID":65210,"ELEMENT_SET_NO":999,"REV_AT_EPOCH":3309,"BSTAR":0.00089079008,"MEAN_MOTION_DOT":0.00026103,"MEAN_MOTION_DDOT":0},{"OBJECT_NAME":"CZ-4 DEB","OBJECT_ID":"2006-046L","EPOCH":"2026-03-09T05:26:57.251328","MEAN_MOTION":15.20206122,"ECCENTRICITY":0.00567956,"INCLINATION":97.8211,"RA_OF_ASC_NODE":163.0679,"ARG_OF_PERICENTER":229.3561,"MEAN_ANOMALY":130.2727,"EPHEMERIS_TYPE":0,"CLASSIFICATION_TYPE":"U","NORAD_CAT_ID":35378,"ELEMENT_SET_NO":999,"REV_AT_EPOCH":2541,"BSTAR":0.0021311714,"MEAN_MOTION_DOT":0.00048409,"MEAN_MOTION_DDOT":0}]
